[{"OBJECT_NAME":"STARLINK-31851","OBJECT_ID":"2024-097K","EPOCH":"2026-03-09T00:03:16.663680","MEAN_MOTION":15.27574121,"ECCENTRICITY":0.00012883,"INCLINATION":42.9994,"RA_OF_ASC_NODE":278.074,"ARG_OF_PERICENTER":263.3021,"MEAN_ANOMALY":96.7684,"EPHEMERIS_TYPE":0,"CLASSIFICATION_TYPE":"U","NORAD_CAT_ID":59844,"ELEMENT_SET_NO":999,"REV_AT_EPOCH":10181,"BSTAR":-8.01246e-6,"MEAN_MOTION_DOT":-4.82e-6,"MEAN_MOTION_DDOT":0},{"OBJECT_NAME":"FLOCK 4G-36","OBJECT_ID":"2025-009BU","EPOCH":"2026-03-09T16:58:27.533568","MEAN_MOTION":15.27209548,"ECCENTRICITY":0.00034736,"INCLINATION":97.4053,"RA_OF_ASC_NODE":151.0513,"ARG_OF_PERICENTER":324.2456,"MEAN_ANOMALY":35.855,"EPHEMERIS_TYPE":0,"CLASSIFICATION_TYPE":"U","NORAD_CAT_ID":62675,"ELEMENT_SET_NO":999,"REV_AT_EPOCH":6370,"BSTAR":0.00051121743,"MEAN_MOTION_DOT":0.00013573,"MEAN_MOTION_DDOT":0}]
